#dP2018 10 15  0  0  0.00000000      96 __u+U ITR00 FIT  IAC
## 2023  86400.00000000   900.00000000 58406 0.0000000000000
+   92   C01C02C03C04C05C06C07C08C09C10C11C12C13C14E01E02E03
+        E04E05E07E08E09E11E12E14E18E19E21E24E25E26E27E30G01
+        G02G03G04G05G06G07G08G09G10G11G12G13G14G15G16G17G18
+        G19G20G21G22G23G24G25G26G27G28G29G30G31G32J01J02J03
+        J07R01R02R03R04R05R07R08R09R10R11R13R14R15R16R17R18
+        R19R20R21R22R23R24R26  0  0  0  0  0  0  0  0  0  0
++         0  0  0  0  0  0  0  0  0  0  0  0  0  0  0  0  0
++         0  0  0  0  0  0  0  0  0  0  0  0  0  0  0  0  0
++         0  0  0  0  0  0  0  0  0  0  0  0  0  0  0  0  0
++         0  0  0  0  0  0  0  0  0  0  0  0  0  0  0  0  0
++         0  0  0  0  0  0  0  0  0  0  0  0  0  0  0  0  0
++         0  0  0  0  0  0  0  0  0  0  0  0  0  0  0  0  0
%c M  cc GPS ccc cccc cccc cccc cccc ccccc ccccc ccccc ccccc
%c cc cc ccc ccc cccc cccc cccc cccc ccccc ccccc ccccc ccccc
%f  0.0000000  0.000000000  0.00000000000  0.000000000000000
%f  0.0000000  0.000000000  0.00000000000  0.000000000000000
%i    0    0    0    0      0      0      0      0         0
%i    0    0    0    0      0      0      0      0         0
/*                                                          
/*   RSA / INFORMATION & ANALYSIS CENTER (IAC) OF MCC       
/*   ULTRA-RAPID DETERMINATION                              
/* PCV:IGS14_2022 OL/AL:FES2004  NONE     YN ORB:CoN CLK:CoN
*  2018 10 15  6  0  0.00000000
PC01 -32336.738362  27035.316530   -961.940104   -240.160189
PC02   4454.098960  41910.759064    884.144814    -26.668547
PC03 -14716.660251  39546.329009   -329.281644   -258.193470
PC04 -39646.077057  14308.091762   -440.767566    -75.158792
PC05  21879.185159  36038.329440   1149.420561    227.563671
PC06  -9008.862027  33783.020584  24081.216010    381.997073
PC07 -16845.750272  21611.533074 -32005.382146    -94.605078
PC08 -24529.088843  32978.175061   8798.786551     -2.252184
PC09   2088.635030  41219.392667   9605.561295    199.489178
PC10   -858.195655  25795.459210 -33166.819428   -154.830478
PC11 -10572.633702 -14901.885456 -21060.930474      4.102404
PC12   1698.838720 -26963.675709  -7137.517846    151.529028
PC13 -11172.617087  33740.456728  22499.378074   -326.479196
PC14 -20464.823508 -18929.831708    349.635964    605.771979
PE01  29132.811684   -829.048238   5158.179095   -456.378228
PE02 -29130.435198    840.631710  -5174.108539     31.240341
PE03 -18568.534053  -1173.972617  23023.558507    -88.387716
PE04   8098.560959 -18754.895375 -21419.220980   -137.981962
PE05 -18206.569600 -20507.235742  11145.128379    176.732097
PE07   7192.693532  27785.845120   7220.687523    -56.749351
PE08  -7792.140691  18794.753999  21495.042792   6482.749135
PE09  -7486.291381 -27712.676173  -7252.014927   6647.439938
PE11   3148.078505 -24265.003412 -16659.922270   5696.098096
PE12  17557.549184 -23779.769868   1488.768490   5275.235524
PE14 -20297.106521   7041.280352 -24510.453646   6504.506744
PE18  14271.906555  -7427.041456  16981.435831   5831.700514
PE19  18963.150982   3304.662937 -22486.673475    -11.407957
PE21  23617.269662  11169.297064 -13901.201817   -499.555380
PE24  -4839.197055 -16418.373003  24146.345883   6440.923031
PE25 -23604.624940 -11193.906017  13940.728550   2012.914185
PE26  12699.462041  10699.619260  24502.152010   5363.314186
PE27   4145.327265  16357.785318 -24306.983644    610.829985
PE30 -17206.576475  12172.685200 -20781.619554   5431.890544
PG01   6921.425400 -18594.542358 -17675.707486   -100.656208
PG02 -21323.373076  15621.966789    223.463183    -30.420959
PG03  -4145.239060 -17555.200870 -19554.296830    149.061510
PG04  13802.948352  -7659.841377  21038.441511     17.039326
PG05 -15907.500226   7917.185303  19684.779841     -0.968726
PG06 -22562.665095   3495.952372 -13557.172157    349.409607
PG07  -9134.191310 -12454.234387  21859.897646    106.501710
PG08   6645.546215 -22900.321578  11573.628265   -118.654133
PG09  -7383.432606 -24058.226947   8447.173474    500.322722
PG10  24297.619799  10692.034189  -2394.422920    174.464416
PG11   6769.732913 -24195.347503  -9480.673346   -709.741564
PG12  -1309.022563  15871.467397 -21481.110836    299.670390
PG13 -12430.896504  16918.986084  16143.593707    -87.029299
PG14  15079.292170   -907.983150 -21536.904790    -96.700866
PG15  -2527.800016  24999.946904   7721.064602   -343.026190
PG16  17837.825241  -3844.995876  19293.682089      4.141254
PG17 -13376.641445 -10134.170447 -20221.936898    -43.962769
PG18  14705.288140 -19566.689340 -10593.674926     68.385301
PG19 -14952.109793   1466.168540 -22203.764629   -393.409252
PG20  21229.675163  14142.710456   7480.784577    517.303389
PG21  12808.435551  10137.528297  21737.537094   -321.051908
PG22   4224.541695 -15403.164911 -20991.432302   -547.178414
PG23  -1778.891876 -26270.966737    280.599418   -208.667671
PG24 -10514.135420  19885.879242 -14002.063801    -56.751193
PG25  12314.110754  18211.225833 -15254.827041   -661.951980
PG26  23606.135451   2069.480755  12140.846392      9.762839
PG27  12045.011796 -14061.503147  18855.085462     -5.380994
PG28 -22287.560036 -14376.090044    183.919607    749.799279
PG29   4785.364199  24889.990703   7909.848428    356.698850
PG30 -18629.898373  -4751.478298  18415.613560      9.982453
PG31  23743.772065  -5019.332097 -11256.748628     86.652220
PG32  14858.935786   7994.692025 -20494.140729   -392.426112
PJ01 -23610.858434  24697.951766  29741.687522   -312.118509
PJ02 -34883.659417  17986.080825 -10773.200436      0.217926
PJ03 -19901.055154  28955.490234 -18764.540458      0.289833
PJ07 -25397.654318  33649.789972     45.518911 999999.999999
PR01   9463.637120  -5871.580309 -22950.867957     33.484375
PR02  -5519.181027 -19841.928666 -14982.499134    334.561162
PR03 -15552.341281 -20117.016593   1752.126213    145.997124
PR04 -16387.843387  -8236.542242  17730.472814    279.970539
PR05  -7860.995007   7606.820817  23048.894384     13.123694
PR07  15675.285799  20034.396205  -2109.437717    -49.348146
PR08  16543.111519   8937.842303 -17193.333832     20.923877
PR09  -2564.467266  11294.967518 -22713.861575     33.520073
PR10  14963.526228   7569.671445 -19199.334212     33.540462
PR11  25187.720503   -566.733044  -3801.528594    -43.941752
PR13   3067.844143 -11097.053825  22751.041584    -15.706001
PR14 -15058.972566  -7689.583105  19125.081991     31.999113
PR15 -24005.095603  -1691.222061   8329.780298    -17.688315
PR16 -20607.431373   8336.539774 -12423.244628    103.979872
PR17  -3393.596204 -15081.988933 -20298.421650    172.347469
PR18 -11958.106021   1574.562306 -22472.477111     26.105988
PR19 -14369.469122  17119.419476 -12284.776186    -60.640870
PR20  -7969.952774  23341.730410   6585.215335   -355.657160
PR21   3654.280957  14616.607138  20570.557512     -8.951029
PR22  12601.350580  -3753.940477  21834.396778    -64.974102
PR23  13340.422144 -20125.255643   8229.550386    184.458957
PR24   6814.382337 -23305.182758  -7837.543346   -172.571470
PR26  -8249.864878  23573.457109   5114.768267     24.355783
EOF
